SIRION PATHFINDER-2     
1 43759U 18099B   26129.85744602  .00003144  00000+0  17561-3 0  9995
2 43759  97.4283 179.8305 0010435  77.0112 283.2284 15.14197000406824
CORVUS BC4              
1 43767U 18099K   26129.68012363  .00003353  00000+0  19780-3 0  9994
2 43767  97.4099 173.7910 0009720 128.4492 231.7612 15.12179714406586
M2 PATHFINDER           
1 45727U 20037E   26129.47388275  .00002332  00000+0  17096-3 0  9996
2 45727  97.8168 320.2722 0010397 285.5873  74.4204 15.04507366319676
NETSAT-4                
1 46504U 20068U   26129.93239885  .00012336  00000+0  28549-3 0  9997
2 46504  97.8626 135.1398 0007669  98.1422 262.0695 15.42600978309872
NETSAT-3                
1 46505U 20068V   26129.97354450  .00012971  00000+0  31256-3 0  9992
2 46505  97.8673 133.4510 0007470 110.8032 249.4014 15.41371632309797
NETSAT-1                
1 46506U 20068W   26129.97905318  .00008466  00000+0  26217-3 0  9993
2 46506  97.8759 128.2275 0006601 129.7717 230.4107 15.33715318309446
NETSAT-2                
1 46507U 20068X   26129.95578638  .00015551  00000+0  33840-3 0  9996
2 46507  97.8640 134.9315 0006110 118.5774 241.6088 15.44388470309831
GREENCUBE (IO-117)      
1 53109U 22080E   26129.89774276 -.00000003  00000+0  00000+0 0  9992
2 53109  70.1439 311.5673 0008862 298.6643  61.3125  6.42583320 89606
SITRO-AIS 5 (KATYS)     
1 57176U 23091L   26129.91542481  .00008220  00000+0  29792-3 0  9998
2 57176  97.5080 193.4738 0010470 231.3871 128.6431 15.28581483158496
SITRO-AIS 6 (CHIRKIN)   
1 57192U 23091AC  26129.93936305  .00004170  00000+0  16870-3 0  9993
2 57192  97.5089 192.8148 0010639 235.2916 124.7320 15.25228361158451
SITRO-AIS 8 (ANOKHIN)   
1 57193U 23091AD  26129.93194326  .00009670  00000+0  32388-3 0  9995
2 57193  97.5075 194.9287 0009783 226.5381 133.5047 15.31109375158590
SITRO-AIS 7 (FARTUSHNIY)
1 57194U 23091AE  26129.93492405  .00003958  00000+0  16170-3 0  9999
2 57194  97.5087 192.6545 0010465 236.4777 123.5461 15.24935521158449
SITRO-AIS 10 (BURDAEV)  
1 57199U 23091AK  26129.92386689  .00013025  00000+0  35966-3 0  9999
2 57199  97.5094 199.5938 0006758 196.6255 163.4768 15.37179910158889
SITRO-AIS 9 (SHCHUKIN)  
1 57201U 23091AM  26129.93867040  .00013060  00000+0  36587-3 0  9998
2 57201  97.5093 199.3676 0006961 197.1840 162.9170 15.36727371158870
SITRO-AIS 12 (SMIRENNIY)
1 57204U 23091AQ  26129.93642762  .00013255  00000+0  36795-3 0  9990
2 57204  97.5106 199.8088 0006769 190.9969 169.1128 15.37010692158895
SITRO-AIS 11 (SHEFFER)  
1 57208U 23091AU  26129.95995872  .00013484  00000+0  36958-3 0  9994
2 57208  97.5103 200.0565 0006687 190.6124 169.4981 15.37403170158910
SITRO-AIS 25            
1 59066U 24039R   26129.98234781  .00003530  00000+0  27490-3 0  9991
2 59066  95.3919 208.8437 0147626 101.5731 260.2109 14.93243277119025
SITRO-AIS 26            
1 59067U 24039S   26129.97859016  .00003656  00000+0  28586-3 0  9991
2 59067  95.3921 208.7465 0147974 102.1233 259.6615 14.93046011119019
SITRO-AIS 27            
1 59068U 24039T   26129.95944376  .00003952  00000+0  30626-3 0  9991
2 59068  95.3917 208.9874 0147006 100.9317 260.8488 14.93453934119036
SITRO-AIS 28            
1 59071U 24039U   26129.93776442  .00003237  00000+0  25123-3 0  9992
2 59071  95.3921 209.0178 0146742 100.8472 260.9308 14.93489462119038
GRBBETA                 
1 60237U 24128C   26129.92140536  .00002648  00000+0  18984-3 0  9997
2 60237  61.9911 350.4896 0045661 126.7212 233.8088 15.06325073100505
OOV-CUBE (TUBSAT-30)    
1 60240U 24128F   26129.99257422  .00001552  00000+0  12903-3 0  9999
2 60240  61.9964 358.7366 0049174 125.3867 235.1833 15.02579272100370
ROBUSTA-3A (MEDITERRAN*)
1 60243U 24128J   26129.96017715  .00005478  00000+0  33061-3 0  9997
2 60243  61.9877 343.3658 0046460 120.4647 240.1049 15.11077213100640
LASARSAT                
1 62391U 24247Q   26129.37883651  .00026150  00000+0  56666-3 0  9996
2 62391  44.9740 119.8729 0004505  90.2978 269.8427 15.44007397 77313
CROCUBE                 
1 62394U 24247T   26129.35512813  .00025500  00000+0  52416-3 0  9993
2 62394  44.9720 117.9132 0004145  91.0663 269.0701 15.45574820 77331
