OBJECT_NAME,OBJECT_ID,EPOCH,MEAN_MOTION,ECCENTRICITY,INCLINATION,RA_OF_ASC_NODE,ARG_OF_PERICENTER,MEAN_ANOMALY,EPHEMERIS_TYPE,CLASSIFICATION_TYPE,NORAD_CAT_ID,ELEMENT_SET_NO,REV_AT_EPOCH,BSTAR,MEAN_MOTION_DOT,MEAN_MOTION_DDOT
SIRION PATHFINDER-2,2018-099B,2026-05-09T20:34:43.336128,15.14197000,.00104359,97.4283,179.8305,77.0112,283.2284,0,U,43759,999,40682,.17560874E-3,.3144E-4,0
CORVUS BC4,2018-099K,2026-05-09T16:19:22.681632,15.12179714,.00097202,97.4099,173.7910,128.4492,231.7612,0,U,43767,999,40658,.19780154E-3,.3353E-4,0
M2 PATHFINDER,2020-037E,2026-05-09T11:22:23.469600,15.04507366,.00103975,97.8168,320.2722,285.5873,74.4204,0,U,45727,999,31967,.17096244E-3,.2332E-4,0
NETSAT-4,2020-068U,2026-05-09T22:22:39.260640,15.42600978,.00076696,97.8626,135.1398,98.1422,262.0695,0,U,46504,999,30987,.28548535E-3,.12336E-3,0
NETSAT-3,2020-068V,2026-05-09T23:21:54.244800,15.41371632,.00074703,97.8673,133.4510,110.8032,249.4014,0,U,46505,999,30979,.31255555E-3,.12971E-3,0
NETSAT-1,2020-068W,2026-05-09T23:29:50.194752,15.33715318,.00066018,97.8759,128.2275,129.7717,230.4107,0,U,46506,999,30944,.26217373E-3,.8466E-4,0
NETSAT-2,2020-068X,2026-05-09T22:56:19.943232,15.44388470,.00061102,97.8640,134.9315,118.5774,241.6088,0,U,46507,999,30983,.33839695E-3,.15551E-3,0
GREENCUBE (IO-117),2022-080E,2026-05-09T21:32:44.974464,6.42583320,.00088626,70.1439,311.5673,298.6643,61.3125,0,U,53109,999,8960,0,-.3E-7,0
SITRO-AIS 5 (KATYS),2023-091L,2026-05-09T21:58:12.703584,15.28581483,.00104707,97.5080,193.4738,231.3871,128.6431,0,U,57176,999,15849,.29792346E-3,.822E-4,0
SITRO-AIS 6 (CHIRKIN),2023-091AC,2026-05-09T22:32:40.967520,15.25228361,.00106399,97.5089,192.8148,235.2916,124.7320,0,U,57192,999,15845,.16869881E-3,.417E-4,0
SITRO-AIS 8 (ANOKHIN),2023-091AD,2026-05-09T22:21:59.897664,15.31109375,.00097838,97.5075,194.9287,226.5381,133.5047,0,U,57193,999,15859,.32387938E-3,.967E-4,0
SITRO-AIS 7 (FARTUSHNIY),2023-091AE,2026-05-09T22:26:17.437920,15.24935521,.00104657,97.5087,192.6545,236.4777,123.5461,0,U,57194,999,15844,.16170136E-3,.3958E-4,0
SITRO-AIS 10 (BURDAEV),2023-091AK,2026-05-09T22:10:22.099296,15.37179910,.00067588,97.5094,199.5938,196.6255,163.4768,0,U,57199,999,15888,.35966351E-3,.13025E-3,0
SITRO-AIS 9 (SHCHUKIN),2023-091AM,2026-05-09T22:31:41.122560,15.36727371,.00069619,97.5093,199.3676,197.1840,162.9170,0,U,57201,999,15887,.36587068E-3,.1306E-3,0
SITRO-AIS 12 (SMIRENNIY),2023-091AQ,2026-05-09T22:28:27.346368,15.37010692,.00067698,97.5106,199.8088,190.9969,169.1128,0,U,57204,999,15889,.36795277E-3,.13255E-3,0
SITRO-AIS 11 (SHEFFER),2023-091AU,2026-05-09T23:02:20.433408,15.37403170,.00066878,97.5103,200.0565,190.6124,169.4981,0,U,57208,999,15891,.3695829E-3,.13484E-3,0
SITRO-AIS 25,2024-039R,2026-05-09T23:34:34.850784,14.93243277,.01476265,95.3919,208.8437,101.5731,260.2109,0,U,59066,999,11902,.27490064E-3,.353E-4,0
SITRO-AIS 26,2024-039S,2026-05-09T23:29:10.189824,14.93046011,.01479743,95.3921,208.7465,102.1233,259.6615,0,U,59067,999,11901,.28586004E-3,.3656E-4,0
SITRO-AIS 27,2024-039T,2026-05-09T23:01:35.940864,14.93453934,.01470063,95.3917,208.9874,100.9317,260.8488,0,U,59068,999,11903,.30626256E-3,.3952E-4,0
SITRO-AIS 28,2024-039U,2026-05-09T22:30:22.845888,14.93489462,.0146742,95.3921,209.0178,100.8472,260.9308,0,U,59071,999,11903,.25122567E-3,.3237E-4,0
GRBBETA,2024-128C,2026-05-09T22:06:49.423104,15.06325073,.00456614,61.9911,350.4896,126.7212,233.8088,0,U,60237,999,10050,.189843E-3,.2648E-4,0
OOV-CUBE (TUBSAT-30),2024-128F,2026-05-09T23:49:18.412608,15.02579272,.0049174,61.9964,358.7366,125.3867,235.1833,0,U,60240,999,10037,.12903308E-3,.1552E-4,0
ROBUSTA-3A (MEDITERRANEE),2024-128J,2026-05-09T23:02:39.305760,15.11077213,.00464605,61.9877,343.3658,120.4647,240.1049,0,U,60243,999,10064,.33061029E-3,.5478E-4,0
LASARSAT,2024-247Q,2026-05-09T09:05:31.474464,15.44007397,.00045054,44.9740,119.8729,90.2978,269.8427,0,U,62391,999,7731,.5666619E-3,.2615E-3,0
CROCUBE,2024-247T,2026-05-09T08:31:23.070432,15.45574820,.00041452,44.9720,117.9132,91.0663,269.0701,0,U,62394,999,7733,.52416004E-3,.255E-3,0
